[
    {
        "Altitude(m)": 558927.9317778278,
        "Argument of Periapsis(deg)": 0.013245982221427002,
        "Eccentricity": 0.0,
        "Inclination(deg)": 53.0,
        "Latitude(deg)": -20.103796103755297,
        "Longitude(deg)": 67.5024353089628,
        "Mean Anomaly(deg)": -25.271314264844776,
        "RAAN(deg)": 184.98028673705602,
        "Satellite Name": "Starlink Shell 1 833",
        "Satellite Number": 833,
        "Semi-Major Axis(m)": 6931778.249405717,
        "Time(s)": 380
    },
    {
        "Altitude(m)": 558770.8999355274,
        "Argument of Periapsis(deg)": 0.013594560700938237,
        "Eccentricity": 0.0,
        "Inclination(deg)": 53.0,
        "Latitude(deg)": -19.619744641206726,
        "Longitude(deg)": 67.88615328853902,
        "Mean Anomaly(deg)": -24.644483061288028,
        "RAAN(deg)": 184.97976796697859,
        "Satellite Name": "Starlink Shell 1 833",
        "Satellite Number": 833,
        "Semi-Major Axis(m)": 6931778.249405717,
        "Time(s)": 390
    },
    {
        "Altitude(m)": 558615.3758534017,
        "Argument of Periapsis(deg)": 0.013943139180449475,
        "Eccentricity": 0.0,
        "Inclination(deg)": 53.0,
        "Latitude(deg)": -19.134655803357457,
        "Longitude(deg)": 68.26734617701524,
        "Mean Anomaly(deg)": -24.01765185773136,
        "RAAN(deg)": 184.97924919690107,
        "Satellite Name": "Starlink Shell 1 833",
        "Satellite Number": 833,
        "Semi-Major Axis(m)": 6931778.249405717,
        "Time(s)": 400
    },
    {
        "Altitude(m)": 558461.4130024385,
        "Argument of Periapsis(deg)": 0.014291717659960712,
        "Eccentricity": 0.0,
        "Inclination(deg)": 53.0,
        "Latitude(deg)": -18.648562257433806,
        "Longitude(deg)": 68.6460913157052,
        "Mean Anomaly(deg)": -23.39082065417461,
        "RAAN(deg)": 184.97873042682363,
        "Satellite Name": "Starlink Shell 1 833",
        "Satellite Number": 833,
        "Semi-Major Axis(m)": 6931778.249405717,
        "Time(s)": 410
    },
    {
        "Altitude(m)": 558309.0640087941,
        "Argument of Periapsis(deg)": 0.014640296139471948,
        "Eccentricity": 0.0,
        "Inclination(deg)": 53.0,
        "Latitude(deg)": -18.16149611823756,
        "Longitude(deg)": 69.02246454893536,
        "Mean Anomaly(deg)": -22.76398945061784,
        "RAAN(deg)": 184.97821165674614,
        "Satellite Name": "Starlink Shell 1 833",
        "Satellite Number": 833,
        "Semi-Major Axis(m)": 6931778.249405717,
        "Time(s)": 420
    },
    {
        "Altitude(m)": 558158.3806304219,
        "Argument of Periapsis(deg)": 0.014988874618983185,
        "Eccentricity": 0.0,
        "Inclination(deg)": 53.0,
        "Latitude(deg)": -17.673488968125746,
        "Longitude(deg)": 69.39654075361538,
        "Mean Anomaly(deg)": -22.13715824706117,
        "RAAN(deg)": 184.97769288666862,
        "Satellite Name": "Starlink Shell 1 833",
        "Satellite Number": 833,
        "Semi-Major Axis(m)": 6931778.249405717,
        "Time(s)": 430
    },
    {
        "Altitude(m)": 558009.4137341502,
        "Argument of Periapsis(deg)": 0.015337453098494424,
        "Eccentricity": 0.0,
        "Inclination(deg)": 53.0,
        "Latitude(deg)": -17.184571876551388,
        "Longitude(deg)": 69.76839436912637,
        "Mean Anomaly(deg)": -21.510327043504525,
        "RAAN(deg)": 184.9771741165912,
        "Satellite Name": "Starlink Shell 1 833",
        "Satellite Number": 833,
        "Semi-Major Axis(m)": 6931778.249405717,
        "Time(s)": 440
    },
    {
        "Altitude(m)": 557862.2132731662,
        "Argument of Periapsis(deg)": 0.01568603157800566,
        "Eccentricity": 0.0,
        "Inclination(deg)": 53.0,
        "Latitude(deg)": -16.69477541917768,
        "Longitude(deg)": 70.13809841460431,
        "Mean Anomaly(deg)": -20.883495839947777,
        "RAAN(deg)": 184.97665534651372,
        "Satellite Name": "Starlink Shell 1 833",
        "Satellite Number": 833,
        "Semi-Major Axis(m)": 6931778.249405717,
        "Time(s)": 450
    },
    {
        "Altitude(m)": 557716.8282649722,
        "Argument of Periapsis(deg)": 0.0160346100575169,
        "Eccentricity": 0.0,
        "Inclination(deg)": 53.0,
        "Latitude(deg)": -16.204129696574352,
        "Longitude(deg)": 70.50572501931887,
        "Mean Anomaly(deg)": -20.256664636391005,
        "RAAN(deg)": 184.97613657643623,
        "Satellite Name": "Starlink Shell 1 833",
        "Satellite Number": 833,
        "Semi-Major Axis(m)": 6931778.249405717,
        "Time(s)": 460
    },
    {
        "Altitude(m)": 557573.3067697447,
        "Argument of Periapsis(deg)": 0.016383188537028134,
        "Eccentricity": 0.0,
        "Inclination(deg)": 53.0,
        "Latitude(deg)": -15.712664352508469,
        "Longitude(deg)": 70.87134595323428,
        "Mean Anomaly(deg)": -19.629833432834335,
        "RAAN(deg)": 184.97561780635877,
        "Satellite Name": "Starlink Shell 1 833",
        "Satellite Number": 833,
        "Semi-Major Axis(m)": 6931778.249405717,
        "Time(s)": 470
    },
    {
        "Altitude(m)": 557431.6958692307,
        "Argument of Periapsis(deg)": 0.01673176701653937,
        "Eccentricity": 0.0,
        "Inclination(deg)": 53.0,
        "Latitude(deg)": -15.220408591842807,
        "Longitude(deg)": 71.2350316448423,
        "Mean Anomaly(deg)": -19.00300222927769,
        "RAAN(deg)": 184.9750990362813,
        "Satellite Name": "Starlink Shell 1 833",
        "Satellite Number": 833,
        "Semi-Major Axis(m)": 6931778.249405717,
        "Time(s)": 480
    },
    {
        "Altitude(m)": 557292.0416460582,
        "Argument of Periapsis(deg)": 0.017080345496050607,
        "Eccentricity": 0.0,
        "Inclination(deg)": 53.0,
        "Latitude(deg)": -14.727391198052016,
        "Longitude(deg)": 71.59685171197953,
        "Mean Anomaly(deg)": -18.376171025720918,
        "RAAN(deg)": 184.97458026620382,
        "Satellite Name": "Starlink Shell 1 833",
        "Satellite Number": 833,
        "Semi-Major Axis(m)": 6931778.249405717,
        "Time(s)": 490
    },
    {
        "Altitude(m)": 557154.3891635733,
        "Argument of Periapsis(deg)": 0.017428923975561842,
        "Eccentricity": 0.0,
        "Inclination(deg)": 53.0,
        "Latitude(deg)": -14.23364055036939,
        "Longitude(deg)": 71.95687549272611,
        "Mean Anomaly(deg)": -17.74933982216417,
        "RAAN(deg)": 184.97406149612635,
        "Satellite Name": "Starlink Shell 1 833",
        "Satellite Number": 833,
        "Semi-Major Axis(m)": 6931778.249405717,
        "Time(s)": 500
    },
    {
        "Altitude(m)": 557018.7824461571,
        "Argument of Periapsis(deg)": 0.01777750245507308,
        "Eccentricity": 0.0,
        "Inclination(deg)": 53.0,
        "Latitude(deg)": -13.73918464057688,
        "Longitude(deg)": 72.3151710634877,
        "Mean Anomaly(deg)": -17.12250861860753,
        "RAAN(deg)": 184.97354272604886,
        "Satellite Name": "Starlink Shell 1 833",
        "Satellite Number": 833,
        "Semi-Major Axis(m)": 6931778.249405717,
        "Time(s)": 510
    },
    {
        "Altitude(m)": 556885.2644600477,
        "Argument of Periapsis(deg)": 0.018126080934584315,
        "Eccentricity": 0.0,
        "Inclination(deg)": 53.0,
        "Latitude(deg)": -13.244051089449298,
        "Longitude(deg)": 72.67180576998148,
        "Mean Anomaly(deg)": -16.49567741505073,
        "RAAN(deg)": 184.9730239559714,
        "Satellite Name": "Starlink Shell 1 833",
        "Satellite Number": 833,
        "Semi-Major Axis(m)": 6931778.249405717,
        "Time(s)": 520
    },
    {
        "Altitude(m)": 556753.8770947304,
        "Argument of Periapsis(deg)": 0.018474659414095554,
        "Eccentricity": 0.0,
        "Inclination(deg)": 53.0,
        "Latitude(deg)": -12.74826716286638,
        "Longitude(deg)": 73.0268467582324,
        "Mean Anomaly(deg)": -15.868846211494084,
        "RAAN(deg)": 184.9725051858939,
        "Satellite Name": "Starlink Shell 1 833",
        "Satellite Number": 833,
        "Semi-Major Axis(m)": 6931778.249405717,
        "Time(s)": 530
    },
    {
        "Altitude(m)": 556624.6611447613,
        "Argument of Periapsis(deg)": 0.018823237893606792,
        "Eccentricity": 0.0,
        "Inclination(deg)": 53.0,
        "Latitude(deg)": -12.251859787604568,
        "Longitude(deg)": 73.38035999269033,
        "Mean Anomaly(deg)": -15.242015007937338,
        "RAAN(deg)": 184.97198641581647,
        "Satellite Name": "Starlink Shell 1 833",
        "Satellite Number": 833,
        "Semi-Major Axis(m)": 6931778.249405717,
        "Time(s)": 540
    },
    {
        "Altitude(m)": 556497.6562922394,
        "Argument of Periapsis(deg)": 0.019171816373118027,
        "Eccentricity": 0.0,
        "Inclination(deg)": 53.0,
        "Latitude(deg)": -11.75485556682095,
        "Longitude(deg)": 73.73241078719549,
        "Mean Anomaly(deg)": -14.615183804380669,
        "RAAN(deg)": 184.97146764573895,
        "Satellite Name": "Starlink Shell 1 833",
        "Satellite Number": 833,
        "Semi-Major Axis(m)": 6931778.249405717,
        "Time(s)": 550
    },
    {
        "Altitude(m)": 556372.9010897416,
        "Argument of Periapsis(deg)": 0.019520394852629266,
        "Eccentricity": 0.0,
        "Inclination(deg)": 53.0,
        "Latitude(deg)": -11.257280795240534,
        "Longitude(deg)": 74.08306433590786,
        "Mean Anomaly(deg)": -13.988352600823923,
        "RAAN(deg)": 184.97094887566152,
        "Satellite Name": "Starlink Shell 1 833",
        "Satellite Number": 833,
        "Semi-Major Axis(m)": 6931778.249405717,
        "Time(s)": 560
    }
]